[Satellite]
VERSION=1.1
NAME=GPS IIR-17M (DASS)
NICKNAME=GPS IIR-17M (DASS)
TLE1=1 32260U 07047A   15055.47336745  .00000028  00000-0  00000+0 0  9995
TLE2=2 32260  53.5224 251.4966 0070262  19.9839 318.4032  2.00571560 53998
